{"type":"FeatureCollection","features":[{"type":"Feature","properties":{"line_id":1307,"name":"Sri Lanka - India","line_type":"Treaty","territory1":"Sri Lanka","territory2":"India","source":"Agreement between Sri Lanka and India on the Maritime Boundary between the two Countries in the Gulf of Mannar and the Bay of Bengal and Related Matters 23 March 1976","doc_url":"https://www.marineregions.org/documents/LKA-IND1976MB.PDF","length_km":534.06,"international":true},"geometry":{"type":"LineString","coordinates":[[79.53333333,9.1],[79.52166667,9.0],[79.48833333,8.89666667],[79.30333333,8.66666667],[79.21666667,8.62],[79.07833333,8.52],[78.92333333,8.37],[78.895,8.20333333],[78.76166667,7.58833333],[78.64666667,7.35],[78.20333333,6.51333333],[77.845,5.89833333],[77.17666667,5.0]]}},{"type":"Feature","properties":{"line_id":1299,"name":"Indonesia - Andaman and Nicobar (India)","line_type":"Treaty","territory1":"Indonesia","territory2":"Andaman and Nicobar","source":"Agreement between the Government of the Republic of India and the Government of the Republic of Indonesia relating to the Delimitation of the Continental Shelf Boundary between the two Countries 8 August 1974","doc_url":"https://www.marineregions.org/documents/IND-IDN1974CS.PDF","length_km":87.71,"international":true},"geometry":{"type":"LineString","coordinates":[[94.63333333,6.64166667],[94.54,6.5],[94.40333333,6.27],[94.17166667,6.0]]}},{"type":"Feature","properties":{"line_id":1300,"name":"Indonesia - Andaman and Nicobar (India)","line_type":"Treaty","territory1":"Indonesia","territory2":"Andaman and Nicobar","source":"Agreement between the Government of the Republic of India and the Government of the Republic of Indonesia on the Extension of the 1974 Continental Shelf Boundary between the two Countries in the Andaman Sea and the Indian Ocean 14 January 1977","doc_url":"https://www.marineregions.org/documents/IND-IDN1977CS.PDF","length_km":158.54,"international":true},"geometry":{"type":"LineString","coordinates":[[94.63333333,6.64166667],[94.92694444,7.04],[95.42916667,7.66833333],[95.52,7.76833333]]}},{"type":"Feature","properties":{"line_id":1301,"name":"Indonesia - Andaman and Nicobar (India)","line_type":"Treaty","territory1":"Indonesia","territory2":"Andaman and Nicobar","source":"Agreement between the Government of the Republic of India and the Government of the Republic of Indonesia on the Extension of the 1974 Continental Shelf Boundary between the two Countries in the Andaman Sea and the Indian Ocean 14 January 1977","doc_url":"https://www.marineregions.org/documents/IND-IDN1977CS.PDF","length_km":294.13,"international":true},"geometry":{"type":"LineString","coordinates":[[94.17166667,6.0],[93.68666667,5.42222222],[92.72527778,4.30861111],[92.39861111,4.02777778]]}},{"type":"Feature","properties":{"line_id":1306,"name":"Sri Lanka - India","line_type":"Treaty","territory1":"Sri Lanka","territory2":"India","source":"Agreement between Sri Lanka and India on the Boundary in Historic Waters between the two Countries and Related Matters 26 and 28 June 1974","doc_url":"https://www.marineregions.org/documents/LKA-IND1974BW.PDF","length_km":157.93,"international":true},"geometry":{"type":"LineString","coordinates":[[80.05,10.08333333],[79.58333333,9.95],[79.37666667,9.66916667],[79.51166667,9.36333333],[79.53333333,9.21666667],[79.53333333,9.1]]}},{"type":"Feature","properties":{"line_id":1308,"name":"Andaman and Nicobar (India) - Myanmar","line_type":"Treaty","territory1":"Andaman and Nicobar","territory2":"Myanmar","source":"Agreement between the Socialist Republic of the Union of Burma* and the Republic of India on the Delimitation of the Maritime Boundary in the Andaman Sea, in the Coco Channel and in the Bay of Bengal, 23 December 1986","doc_url":"https://www.marineregions.org/documents/MMR-IND1986MB.PDF","length_km":761.15,"international":true},"geometry":{"type":"LineString","coordinates":[[95.59027778,9.63333333],[95.46666667,9.88722222],[95.26722222,10.31166667],[95.26611111,10.46666667],[95.36666667,10.74805556],[95.43333333,11.72138889],[95.5,12.32861111],[95.68333333,12.90194444],[95.03333333,13.8],[93.83333333,13.8],[93.68305556,13.57166667],[93.13472222,13.81972222],[92.91388889,13.95805556],[92.83388889,14.01638889]]}},{"type":"Feature","properties":{"line_id":1309,"name":"Andaman and Nicobar (India) - Myanmar","line_type":"Treaty","territory1":"Andaman and Nicobar","territory2":"Myanmar","source":"Agreement between the Socialist Republic of the Union of Burma* and the Republic of India on the Delimitation of the Maritime Boundary in the Andaman Sea, in the Coco Channel and in the Bay of Bengal, 23 December 1986","doc_url":"https://www.marineregions.org/documents/MMR-IND1986MB.PDF","length_km":337.02,"international":true},"geometry":{"type":"LineString","coordinates":[[92.83388889,14.01638889],[90.23361111,15.71388889]]}},{"type":"Feature","properties":{"line_id":1310,"name":"Sri Lanka - India","line_type":"Treaty","territory1":"Sri Lanka","territory2":"India","source":"Agreement between Sri Lanka and India on the Maritime Boundary between the two Countries in the Gulf of Mannar and the Bay of Bengal and Related Matters 23 March 1976","doc_url":"https://www.marineregions.org/documents/LKA-IND1976MB.PDF","length_km":396.86,"international":true},"geometry":{"type":"LineString","coordinates":[[80.05,10.08333333],[80.08333333,10.09666667],[80.15833333,10.14],[80.76666667,10.55],[81.04166667,10.695],[81.93333333,11.045],[82.40666667,11.26666667],[83.36666667,11.44333333]]}},{"type":"Feature","properties":{"line_id":1311,"name":"Sri Lanka - India","line_type":"Treaty","territory1":"Sri Lanka","territory2":"India","source":"Supplementary Agreement between Sri Lanka and India on the Extension of the Maritime Boundary between the two Countries in the Gulf of Mannar from Position 13 m to the Trijunction Point between Sri Lanka, India and Maldives (Point T) 22 November 1976","doc_url":"https://www.marineregions.org/documents/LKA-IND1976TP.PDF","length_km":28.78,"international":true},"geometry":{"type":"LineString","coordinates":[[77.17666667,5.0],[77.02333333,4.79]]}},{"type":"Feature","properties":{"line_id":1312,"name":"Thailand - Andaman and Nicobar (India)","line_type":"Treaty","territory1":"Thailand","territory2":"Andaman and Nicobar","source":"Agreement between the Government of the Kingdom of Thailand and the Government of the Republic of India on the Delimitation of Seabed Boundary between the two Countries in the Andaman Sea 22 June 1978","doc_url":"https://www.marineregions.org/documents/THA-IND1978SB.PDF","length_km":171.76,"international":true},"geometry":{"type":"LineString","coordinates":[[95.54666667,7.8],[95.69666667,7.95833333],[95.65444444,8.165],[95.62833333,8.75305556],[95.60861111,9.28833333]]}},{"type":"Feature","properties":{"line_id":1313,"name":"Indonesia - Andaman and Nicobar (India)","line_type":"Treaty","territory1":"Indonesia","territory2":"Andaman and Nicobar","source":"Agreement between the Government of the Kingdom of Thailand, the Government of the Republic of India and the Government of the Republic of Indonesia concerning the Determination of the Trijunction Point and the Delimitation of the Related Boundaries o...","doc_url":"https://www.marineregions.org/documents/THA-IND-IDN1978TP.PDF","length_km":1.99,"international":true},"geometry":{"type":"LineString","coordinates":[[95.53,7.78333333],[95.52,7.76833333]]}},{"type":"Feature","properties":{"line_id":1314,"name":"Thailand - Andaman and Nicobar (India)","line_type":"Treaty","territory1":"Thailand","territory2":"Andaman and Nicobar","source":"Agreement between the Government of the Kingdom of Thailand, the Government of the Republic of India and the Government of the Republic of Indonesia concerning the Determination of the Trijunction Point and the Delimitation of the Related Boundaries o...","doc_url":"https://www.marineregions.org/documents/THA-IND-IDN1978TP.PDF","length_km":2.6,"international":true},"geometry":{"type":"LineString","coordinates":[[95.53,7.78333333],[95.54666667,7.8]]}},{"type":"Feature","properties":{"line_id":1388,"name":"Maldives - India","line_type":"Treaty","territory1":"Maldives","territory2":"India","source":"LIMITS IN THE SEA No. 78 Maritime Boundary: India - Maldives and Maldives' claimed \"Economic Zone\"","doc_url":"https://www.marineregions.org/documents/59587.pdf","length_km":1008.69,"international":true},"geometry":{"type":"LineString","coordinates":[[77.02333333,4.79],[76.94666667,4.87083333],[76.72083333,5.09305556],[76.61333333,5.23222222],[75.69277778,6.47055556],[75.64194444,6.55583333],[75.42944444,6.85166667],[75.27194444,7.2575],[75.20166667,7.4],[74.93583333,7.85833333],[74.49583333,7.80833333],[73.64277778,7.69722222],[73.32722222,7.65055556],[72.825,7.70527778],[72.70722222,7.715],[72.0625,7.81805556],[70.25222222,8.09388889],[69.59583333,7.9575]]}},{"type":"Feature","properties":{"line_id":4093,"name":"India - Bangladesh","line_type":"Median line","territory1":"India","territory2":"Bangladesh","source":"VLIZ Median Line","doc_url":"https://www.marineregions.org/eezmethodology.php","length_km":152.91,"international":true},"geometry":{"type":"LineString","coordinates":[[89.15001341,21.66609712],[89.0944627,21.70136298],[89.07138444,21.73952081],[89.03869817,21.76821551],[89.03031382,21.78388637],[89.02965518,21.79527044],[89.04369496,21.83032169],[89.04531681,21.85186253],[89.04169497,21.86990251],[89.02018742,21.88948207],[89.02788112,21.92014466],[89.0512023,21.92628624],[89.06973128,21.92418461],[89.08188705,21.9544921],[89.08646766,21.98050412],[89.07974649,22.01483231],[89.04660088,22.0616346],[89.04012976,22.09802463],[89.04345746,22.10736391],[89.05593368,22.12194455],[89.06362599,22.12369532],[89.0926427,22.1431874],[89.09850797,22.15557036],[89.09070104,22.15987917],[89.07766551,22.14805433],[89.07002943,22.15024663],[89.06380562,22.1721478],[89.07111942,22.18615738],[89.07198522,22.19566675],[89.04162155,22.22594833],[89.03680333,22.23659697],[89.03386629,22.25811643],[89.029311,22.25914527],[89.01566029,22.25378063],[89.01420311,22.25710849],[89.01908734,22.26915286],[88.99532075,22.28594455],[88.99535874,22.29299439],[89.00018858,22.29662578],[89.00882255,22.29752031],[89.02154684,22.29374285],[89.02475219,22.29617532],[89.00094834,22.32335606],[88.98904673,22.32246201],[88.98498886,22.32597806],[88.98845878,22.34868628],[88.98641094,22.35701872],[88.99005746,22.36410193],[88.98407779,22.3760966],[88.9966182,22.3870922],[88.97496025,22.40508788],[88.97241356,22.41119967],[89.00049957,22.4296167],[88.99018078,22.44610615],[88.9970654,22.46995393],[88.98303938,22.48046018],[88.97363957,22.49919951],[88.97065438,22.52385521],[88.96106156,22.54935371],[88.938979,22.55963129],[88.9330481,22.55696745],[88.92716845,22.56365383],[88.93929694,22.56790316],[88.93873006,22.59230622],[88.95475911,22.60495216],[88.9598298,22.61561653],[88.95408605,22.62014056],[88.93904917,22.61753536],[88.93373701,22.61957756],[88.92919874,22.65010035]]}},{"type":"Feature","properties":{"line_id":1700,"name":"Bangladesh - India","line_type":"Court ruling","territory1":"Bangladesh","territory2":"India","source":"The Bay of Bengal Maritime Boundary Arbitration Between the People\u2019s Republic of Bangladesh and the Republic of India","doc_url":"https://www.marineregions.org/documents/Award, dated 7 July 2014.pdf","length_km":403.33,"international":true},"geometry":{"type":"LineString","coordinates":[[89.15555556,21.6445],[89.18311111,21.44544444],[89.23236111,21.12911111],[89.37354885,18.00904909]]}},{"type":"Feature","properties":{"line_id":3675,"name":"India 200 NM","line_type":"200 NM","territory1":"India","territory2":null,"source":"200NM limit","doc_url":"https://www.marineregions.org/eezmethodology.php","length_km":2741.27,"international":true},"geometry":{"type":"MultiLineString","coordinates":[[[69.47833932,7.93337053],[69.11250387,8.74186303],[69.03805773,8.93644907],[68.97559744,9.13600567],[68.92962838,9.32080024],[68.72627887,10.27107428],[68.51363858,10.86007824],[68.44617558,11.07499817],[68.39721215,11.26903322],[68.36041586,11.46264242],[68.33376057,11.67284543],[68.3207654,11.87880564],[68.32047779,12.07968188],[68.33274526,12.28385253],[68.35656784,12.47967723],[68.39365488,12.68103539],[68.44336851,12.88017457],[68.61571169,13.42477371],[68.6637684,13.56199392],[68.70690136,13.6709866],[68.75393477,13.77842902],[68.8081189,13.89075224],[68.86212726,13.99298635],[68.97493519,14.18240621],[69.10037011,14.36416753],[69.23682204,14.53621952],[69.3875223,14.70261441],[69.54601555,14.85682362],[69.70693916,14.9944099],[69.87942107,15.1238648],[70.06329272,15.24431897],[69.90513185,15.9075698],[69.87345035,16.08593521],[69.82491999,16.4462092],[69.79022295,16.58191738],[69.74189836,16.79582497],[69.69993652,16.9366453],[69.62361816,17.14082523],[69.5687199,17.30172598],[69.52745137,17.43937187],[69.49048655,17.58093997],[69.37347747,17.63526271],[69.19484669,17.70502326],[68.99476863,17.79303669],[68.75244213,17.91103512],[68.55966095,18.01855997],[68.30428771,18.17846867],[68.09910393,18.32177684],[67.98280648,18.41012895],[67.85678974,18.51176619],[67.67486912,18.66554377],[67.55038598,18.78051963],[67.44704292,18.88207397],[67.33719902,18.99618689],[67.21246694,19.13238594],[67.10533536,19.22648343],[66.9977608,19.3286968],[66.8153696,19.48319549],[66.65087256,19.63687391],[66.37289271,19.92271805],[66.18888525,20.12455893],[66.10574942,20.22301404],[66.02425119,20.32729578],[65.95015123,20.42984539],[65.88131364,20.53286087],[65.81364194,20.64286992],[65.75106128,20.75385832],[65.69218139,20.86768366],[65.6391495,20.98033993]],[[89.37354885,18.00904909],[89.28405038,17.97400805],[88.7590395,17.48948988],[88.61473137,17.36991436],[88.46278596,17.25715766],[88.32932743,17.16787209],[86.9104249,16.2714466],[86.64550434,15.99532265],[86.55505111,15.90865398],[86.46488043,15.82817615],[86.34035612,15.72578942],[85.65072635,15.18511587],[84.90446566,14.34615416],[84.77682917,14.21490505],[84.63269451,14.08211683],[84.53162167,13.99744693],[84.43155741,13.91983416],[84.32921055,13.84620704],[84.21950975,13.77329222],[84.1182837,13.71111293],[84.00957606,13.6494626],[83.76414436,13.52628631],[83.76984382,13.32890699],[83.76445841,13.14136871],[83.74517945,12.91959347],[83.7179631,12.73224958],[83.60727235,12.16118567],[83.56957403,11.99564659],[83.47557444,11.66239353],[83.40247228,11.44882481]]]}},{"type":"Feature","properties":{"line_id":3671,"name":"Andaman and Nicobar (India) 200 NM","line_type":"200 NM","territory1":"Andaman and Nicobar","territory2":null,"source":"200NM limit","doc_url":"https://www.marineregions.org/eezmethodology.php","length_km":1450.32,"international":true},"geometry":{"type":"LineString","coordinates":[[92.16011405,3.84065779],[92.04902481,3.90626094],[91.92824374,3.98447772],[91.8138264,4.06564922],[91.70571284,4.14926047],[91.5983254,4.23962773],[91.50535953,4.32437111],[91.40794442,4.42036178],[91.30962822,4.52569555],[91.23061672,4.61731742],[91.15170373,4.71592827],[91.07434597,4.82051756],[91.00764114,4.91800328],[90.9321406,5.03805387],[90.76389223,5.31997643],[90.65683201,5.51840871],[90.00794767,6.91812373],[89.74118426,7.54702613],[89.67476253,7.71339538],[89.59591971,7.89642335],[89.54800453,8.02095145],[89.49892639,8.16680297],[89.45670604,8.31424813],[89.15919554,9.50860126],[89.03836213,9.80615088],[88.97076768,10.00116026],[88.93782074,10.11340923],[88.90924398,10.22494446],[88.88237464,10.34813663],[88.86199925,10.4608655],[88.83800154,10.63790861],[88.82345242,10.81756328],[88.8004315,11.50035597],[88.79933663,11.66732716],[88.80894287,11.86433316],[88.8290569,12.0513844],[88.86053356,12.24061446],[88.90255162,12.42598327],[88.96256578,12.63133628],[89.03533035,12.831074],[89.10636919,12.99507022],[89.2619449,13.31563344],[89.32083639,13.69465078],[89.34740384,13.82570008],[89.37750571,13.94879576],[89.44361783,14.16706027],[89.57594025,14.54529804],[89.62119484,14.66469133],[89.7748839,15.01352585],[89.83383262,15.13185517],[89.89737339,15.24751156],[89.96990314,15.36738343],[90.04944443,15.48693318],[90.13535846,15.60453459],[90.22637496,15.71826916]]}},{"type":"Feature","properties":{"line_id":3805,"name":"Connection line Andaman and Nicobar (India) - Indonesia","line_type":"Connection line","territory1":"Andaman and Nicobar","territory2":"Indonesia","source":"Connection lines between treaties, baselines and median lines","doc_url":"https://www.marineregions.org/eezmethodology.php","length_km":33.61,"international":true},"geometry":{"type":"LineString","coordinates":[[92.39861111,4.02777778],[92.16009924,3.84066634]]}},{"type":"Feature","properties":{"line_id":3806,"name":"Connection line Thailand - Andaman and Nicobar (India)","line_type":"Connection line","territory1":"Thailand","territory2":"Andaman and Nicobar","source":"Connection lines between treaties, baselines and median lines","doc_url":"https://www.marineregions.org/eezmethodology.php","length_km":32.74,"international":true},"geometry":{"type":"LineString","coordinates":[[95.60861111,9.28833333],[95.60343096,9.58428691]]}},{"type":"Feature","properties":{"line_id":3864,"name":"Connection line Bangladesh - India","line_type":"Connection line","territory1":"Bangladesh","territory2":"India","source":"Connection lines between treaties, baselines and median lines","doc_url":"https://www.marineregions.org/eezmethodology.php","length_km":2.46,"international":true},"geometry":{"type":"LineString","coordinates":[[89.15555556,21.6445],[89.15001341,21.66609712]]}},{"type":"Feature","properties":{"line_id":3898,"name":"Connection line Thailand - Andaman and Nicobar (India)","line_type":"Connection line","territory1":"Thailand","territory2":"Andaman and Nicobar","source":"Connection lines between treaties, baselines and median lines","doc_url":"https://www.marineregions.org/eezmethodology.php","length_km":1.11,"international":true},"geometry":{"type":"LineString","coordinates":[[95.59522186,9.6245709],[95.59027778,9.63333333]]}},{"type":"Feature","properties":{"line_id":3936,"name":"Connection line Maldives - India","line_type":"Connection line","territory1":"Maldives","territory2":"India","source":"Connection lines between treaties, baselines and median lines","doc_url":"https://www.marineregions.org/eezmethodology.php","length_km":13.23,"international":true},"geometry":{"type":"LineString","coordinates":[[69.59583333,7.9575],[69.47833932,7.93337053]]}},{"type":"Feature","properties":{"line_id":3937,"name":"Connection line Sri Lanka - India","line_type":"Connection line","territory1":"Sri Lanka","territory2":"India","source":"Connection lines between treaties, baselines and median lines","doc_url":"https://www.marineregions.org/eezmethodology.php","length_km":3.95,"international":true},"geometry":{"type":"LineString","coordinates":[[83.36666667,11.44333333],[83.40247228,11.44882481]]}},{"type":"Feature","properties":{"line_id":3938,"name":"Connection line Andaman and Nicobar (India) - Myanmar","line_type":"Connection line","territory1":"Andaman and Nicobar","territory2":"Myanmar","source":"Connection lines between treaties, baselines and median lines","doc_url":"https://www.marineregions.org/eezmethodology.php","length_km":0.91,"international":true},"geometry":{"type":"LineString","coordinates":[[90.23361111,15.71388889],[90.22637496,15.71826916]]}},{"type":"Feature","properties":{"line_id":3460,"name":"Thailand - Andaman and Nicobar (India)","line_type":"Median line","territory1":"Thailand","territory2":"Andaman and Nicobar","source":"VLIZ Median Line","doc_url":"https://www.marineregions.org/eezmethodology.php","length_km":4.55,"international":true},"geometry":{"type":"LineString","coordinates":[[95.59522186,9.6245709],[95.60343096,9.58428691]]}},{"type":"Feature","properties":{"line_id":3556,"name":"Pakistan - India","line_type":"Median line","territory1":"Pakistan","territory2":"India","source":"VLIZ Median Line","doc_url":"https://www.marineregions.org/eezmethodology.php","length_km":461.31,"international":true},"geometry":{"type":"MultiLineString","coordinates":[[[65.6391495,20.98033993],[66.45314495,21.64776276],[67.16814325,22.25108157],[67.23325702,22.34051984],[67.47056478,22.71384825],[67.71381102,23.23003541],[68.11152128,23.6363393],[68.11872216,23.64299438],[68.18263137,23.67849427]],[[68.18263137,23.67849427],[68.17882379,23.72985269],[68.18191695,23.74101625],[68.20289643,23.77084742],[68.20598738,23.78462716],[68.19996102,23.81040065],[68.19971046,23.82948639],[68.20883788,23.87581283],[68.25036452,23.89268927],[68.26346352,23.90710306],[68.26937722,23.92133928],[68.28109532,23.93005781],[68.28921027,23.93304038],[68.3232661,23.92271813],[68.33207344,23.92435084],[68.33752972,23.93565406],[68.33687521,23.95465062],[68.34045088,23.96516913],[68.35515274,23.98076734],[68.36698744,23.98759034],[68.37693153,23.99003632],[68.38748114,23.96844506],[68.40080285,23.96845007]],[[68.4343722,23.96831014],[68.44404853,23.96845643]],[[68.49909378,23.96918717],[68.50901728,23.96942377]],[[68.54415524,23.97003674],[68.54901904,23.96750239],[68.5568026,23.97015914]],[[68.59158932,23.97057913],[68.60352351,23.97069821]],[[68.75805473,24.05036497],[68.7585057,24.05859435]]]}},{"type":"Feature","properties":{"line_id":366,"name":"India Straight Baseline","line_type":"Straight baseline","territory1":"India","territory2":null,"source":"Notification of the Ministry of External Affairs of 11 May 2009 concerning the baseline system (India)","doc_url":"https://www.marineregions.org/documents/bulletin71e.pdf","length_km":1045.69,"international":true},"geometry":{"type":"LineString","coordinates":[[71.86333333,12.3875],[71.72222222,11.96333333],[71.75,11.875],[71.99722222,11.175],[72.23333333,10.01666667],[73.01,8.27611111],[73.08111111,8.32416667],[73.64888889,10.05833333],[73.66527778,10.1375],[73.70277778,10.81305556],[73.01055556,11.48722222],[71.88611111,12.39722222],[71.875,12.4],[71.86333333,12.3875]]}},{"type":"Feature","properties":{"line_id":367,"name":"India Straight Baseline","line_type":"Straight baseline","territory1":"India","territory2":null,"source":"Notification of the Ministry of External Affairs of 11 May 2009 concerning the baseline system (India)","doc_url":"https://www.marineregions.org/documents/bulletin71e.pdf","length_km":179.5,"international":true},"geometry":{"type":"LineString","coordinates":[[68.07533333,23.67244444],[68.11691667,23.60841667],[68.34694444,23.40388889],[68.51388889,23.26111111],[68.60916667,23.18416667],[68.93277778,22.31]]}},{"type":"Feature","properties":{"line_id":368,"name":"India Straight Baseline","line_type":"Straight baseline","territory1":"India","territory2":null,"source":"Notification of the Ministry of External Affairs of 11 May 2009 concerning the baseline system (India)","doc_url":"https://www.marineregions.org/documents/bulletin71e.pdf","length_km":1776.88,"international":true},"geometry":{"type":"LineString","coordinates":[[79.87833333,10.29166667],[79.88888889,10.30833333],[79.88055556,10.325],[79.85833333,11.19722222],[79.84583333,11.35],[79.78333333,11.70611111],[79.99361111,12.22083333],[80.14583333,12.44666667],[80.20833333,12.60666667],[80.25666667,12.78166667],[80.34666667,13.27666667],[80.34888889,13.30694444],[80.32666667,13.44333333],[80.25555556,13.78166667],[80.19722222,14.57777778],[80.2125,15.49583333],[80.94166667,15.72361111],[81.01111111,15.76666667],[81.15666667,15.96666667],[81.7,16.29444444],[81.95833333,16.39444444],[82.32222222,16.57083333],[83.215,17.59],[84.13416667,18.31666667],[84.35888889,18.55611111],[84.55833333,18.79444444],[86.375,19.95],[86.7925,20.34166667],[87.10166667,20.74166667],[88.725,21.37833333],[89.14583333,21.565],[89.20638889,21.57694444]]}},{"type":"Feature","properties":{"line_id":370,"name":"India Straight Baseline","line_type":"Straight baseline","territory1":"India","territory2":null,"source":"Notification of the Ministry of External Affairs of 11 May 2009 concerning the baseline system (India)","doc_url":"https://www.marineregions.org/documents/bulletin71e.pdf","length_km":827.34,"international":true},"geometry":{"type":"LineString","coordinates":[[93.02,13.67472222],[92.9775,13.66222222],[92.89111111,13.59722222],[92.80888889,13.42416667],[92.68611111,13.08666667],[92.65,12.86111111],[92.67,12.53333333],[92.19722222,11.585],[92.21,10.97666667],[92.38611111,10.5375],[92.71722222,9.15777778],[93.08,8.27333333],[93.65888889,7.005],[93.80444444,6.75916667],[93.8375,6.75444444]]}},{"type":"Feature","properties":{"line_id":1668,"name":"India Straight Baseline","line_type":"Straight baseline","territory1":"India","territory2":null,"source":"Notification of the Ministry of External Affairs of 11 May 2009 concerning the baseline system (India)","doc_url":"https://www.marineregions.org/documents/bulletin71e.pdf","length_km":1442.2,"international":true},"geometry":{"type":"LineString","coordinates":[[70.82166667,20.69],[72.63694444,19.84222222],[72.68777778,19.62777778],[72.7,19.54055556],[72.74944444,19.3375],[72.77416667,19.13333333],[72.78916667,18.9225],[72.81333333,18.70333333],[72.91472222,18.27111111],[73.03055556,17.94194444],[73.13777778,17.55555556],[73.16666667,17.405],[73.25333333,17.02666667],[73.31,16.53805556],[73.45583333,15.88833333],[73.76111111,15.34388889],[73.91277778,15.08333333],[74.055,14.815],[74.39833333,14.31194444],[74.32277778,14.01027778],[74.64916667,13.40166667],[74.67166667,13.19833333],[74.82555556,12.84944444],[75.00888889,12.40833333],[75.20111111,12.00555556],[75.52777778,11.49166667],[75.91,10.79],[76.02833333,10.525],[76.22166667,9.97416667],[76.31333333,9.50611111]]}},{"type":"Feature","properties":{"line_id":1669,"name":"India Straight Baseline","line_type":"Straight baseline","territory1":"India","territory2":null,"source":"Notification of the Ministry of External Affairs of 11 May 2009 concerning the baseline system (India)","doc_url":"https://www.marineregions.org/documents/bulletin71e.pdf","length_km":304.65,"international":true},"geometry":{"type":"LineString","coordinates":[[77.55666667,8.07333333],[77.74666667,8.17583333],[78.07,8.37333333],[78.13166667,8.49555556],[78.23,8.74666667],[78.58,9.10083333],[79.08833333,9.19],[79.53,9.09333333],[79.52666667,9.10666667],[79.33666667,9.31666667]]}}]}